STARLINK-5086
1 54856U 22177AN  23197.74953401  .00000409  00000+0  45373-4 0  9990
2 54856  43.0052 334.2984 0001596 279.4824  80.5838 15.02537037 30675
STARLINK-5078
1 54857U 22177AP  23198.43874482  .00011141  00000+0  83956-3 0  9992
2 54857  43.0050 330.8693 0001678 264.8375  95.2275 15.02489390 30770
STARLINK-5407
1 54858U 22177AQ  23198.42652630  .00007287  00000+0  55431-3 0  9994
2 54858  43.0048 330.7803 0001661 273.4926  86.5726 15.02511925 30774
STARLINK-5409
1 54859U 22177AR  23197.68638579  .00000559  00000+0  56428-4 0  9991
2 54859  43.0056 334.6853 0001524 274.2030  85.8638 15.02534811 30666
STARLINK-5406
1 54860U 22177AS  23197.81379056  .00000154  00000+0  26506-4 0  9995
2 54860  43.0046 333.9199 0001421 267.9653  92.1026 15.02535536 30687
STARLINK-5400
1 54861U 22177AT  23197.76396290 -.00001354  00000+0 -85171-4 0  9997
2 54861  43.0038 334.4084 0001221 271.6359  88.4343 15.02535037 30676
STARLINK-5403
1 54862U 22177AU  23197.78726937 -.00000181  00000+0  16784-5 0  9996
2 54862  43.0056 334.5936 0001484 276.7670  83.3003 15.02542996 30676
STARLINK-5405
1 54863U 22177AV  23197.42269681 -.00000343  00000+0 -10327-4 0  9993
2 54863  43.0052 336.1462 0001458 269.3410  90.7265 15.02530741 30628
STARLINK-5359
1 54864U 22177AW  23198.40876413  .00001989  00000+0  16224-3 0  9996
2 54864  43.0051 330.6441 0001556 275.7778  84.2887 15.02540820 30640
STARLINK-5411
1 54865U 22177AX  23197.75841259  .00001601  00000+0  13359-3 0  9991
2 54865  43.0044 334.3654 0001459 275.2264  84.8412 15.02539994 30557
STARLINK-5398
1 54866U 22177AY  23198.39987479 -.00006158  00000+0 -44072-3 0  9998
2 54866  43.0049 330.5785 0001784 283.5558  76.5086 15.02573368 30777
STARLINK-5396
1 54867U 22177AZ  23197.67972551  .00000672  00000+0  64797-4 0  9994
2 54867  43.0042 334.6349 0001474 271.2243  88.8431 15.02535543 30541
STARLINK-5379
1 54868U 22177BA  23197.66307656  .00000177  00000+0  28219-4 0  9991
2 54868  43.0049 334.5083 0001467 269.5058  90.5616 15.02534913 30533
STARLINK-5402
1 54869U 22177BB  23197.73843271  .00000226  00000+0  31782-4 0  9992
2 54869  43.0045 334.2154 0001289 271.6030  88.4665 15.02532319 30541
