[{
    "OBJECT_NAME": "STARLINK-5086",
    "OBJECT_ID": "2022-177AN",
    "EPOCH": "2023-07-16T17:59:19.738464",
    "MEAN_MOTION": 15.02537037,
    "ECCENTRICITY": 0.0001596,
    "INCLINATION": 43.0052,
    "RA_OF_ASC_NODE": 334.2984,
    "ARG_OF_PERICENTER": 279.4824,
    "MEAN_ANOMALY": 80.5838,
    "EPHEMERIS_TYPE": 0,
    "CLASSIFICATION_TYPE": "U",
    "NORAD_CAT_ID": 54856,
    "ELEMENT_SET_NO": 999,
    "REV_AT_EPOCH": 3067,
    "BSTAR": 4.5373e-5,
    "MEAN_MOTION_DOT": 4.09e-6,
    "MEAN_MOTION_DDOT": 0
},{
    "OBJECT_NAME": "STARLINK-5078",
    "OBJECT_ID": "2022-177AP",
    "EPOCH": "2023-07-17T10:31:47.552448",
    "MEAN_MOTION": 15.0248939,
    "ECCENTRICITY": 0.0001678,
    "INCLINATION": 43.005,
    "RA_OF_ASC_NODE": 330.8693,
    "ARG_OF_PERICENTER": 264.8375,
    "MEAN_ANOMALY": 95.2275,
    "EPHEMERIS_TYPE": 0,
    "CLASSIFICATION_TYPE": "U",
    "NORAD_CAT_ID": 54857,
    "ELEMENT_SET_NO": 999,
    "REV_AT_EPOCH": 3077,
    "BSTAR": 0.00083956,
    "MEAN_MOTION_DOT": 0.00011141,
    "MEAN_MOTION_DDOT": 0
},{
    "OBJECT_NAME": "STARLINK-5407",
    "OBJECT_ID": "2022-177AQ",
    "EPOCH": "2023-07-17T10:14:11.872320",
    "MEAN_MOTION": 15.02511925,
    "ECCENTRICITY": 0.0001661,
    "INCLINATION": 43.0048,
    "RA_OF_ASC_NODE": 330.7803,
    "ARG_OF_PERICENTER": 273.4926,
    "MEAN_ANOMALY": 86.5726,
    "EPHEMERIS_TYPE": 0,
    "CLASSIFICATION_TYPE": "U",
    "NORAD_CAT_ID": 54858,
    "ELEMENT_SET_NO": 999,
    "REV_AT_EPOCH": 3077,
    "BSTAR": 0.00055431,
    "MEAN_MOTION_DOT": 7.287e-5,
    "MEAN_MOTION_DDOT": 0
},{
    "OBJECT_NAME": "STARLINK-5409",
    "OBJECT_ID": "2022-177AR",
    "EPOCH": "2023-07-16T16:28:23.732256",
    "MEAN_MOTION": 15.02534811,
    "ECCENTRICITY": 0.0001524,
    "INCLINATION": 43.0056,
    "RA_OF_ASC_NODE": 334.6853,
    "ARG_OF_PERICENTER": 274.203,
    "MEAN_ANOMALY": 85.8638,
    "EPHEMERIS_TYPE": 0,
    "CLASSIFICATION_TYPE": "U",
    "NORAD_CAT_ID": 54859,
    "ELEMENT_SET_NO": 999,
    "REV_AT_EPOCH": 3066,
    "BSTAR": 5.6428e-5,
    "MEAN_MOTION_DOT": 5.59e-6,
    "MEAN_MOTION_DDOT": 0
},{
    "OBJECT_NAME": "STARLINK-5406",
    "OBJECT_ID": "2022-177AS",
    "EPOCH": "2023-07-16T19:31:51.504384",
    "MEAN_MOTION": 15.02535536,
    "ECCENTRICITY": 0.0001421,
    "INCLINATION": 43.0046,
    "RA_OF_ASC_NODE": 333.9199,
    "ARG_OF_PERICENTER": 267.9653,
    "MEAN_ANOMALY": 92.1026,
    "EPHEMERIS_TYPE": 0,
    "CLASSIFICATION_TYPE": "U",
    "NORAD_CAT_ID": 54860,
    "ELEMENT_SET_NO": 999,
    "REV_AT_EPOCH": 3068,
    "BSTAR": 2.6506e-5,
    "MEAN_MOTION_DOT": 1.54e-6,
    "MEAN_MOTION_DDOT": 0
},{
    "OBJECT_NAME": "STARLINK-5400",
    "OBJECT_ID": "2022-177AT",
    "EPOCH": "2023-07-16T18:20:06.394560",
    "MEAN_MOTION": 15.02535037,
    "ECCENTRICITY": 0.0001221,
    "INCLINATION": 43.0038,
    "RA_OF_ASC_NODE": 334.4084,
    "ARG_OF_PERICENTER": 271.6359,
    "MEAN_ANOMALY": 88.4343,
    "EPHEMERIS_TYPE": 0,
    "CLASSIFICATION_TYPE": "U",
    "NORAD_CAT_ID": 54861,
    "ELEMENT_SET_NO": 999,
    "REV_AT_EPOCH": 3067,
    "BSTAR": -8.5171e-5,
    "MEAN_MOTION_DOT": -1.354e-5,
    "MEAN_MOTION_DDOT": 0
},{
    "OBJECT_NAME": "STARLINK-5403",
    "OBJECT_ID": "2022-177AU",
    "EPOCH": "2023-07-16T18:53:40.073568",
    "MEAN_MOTION": 15.02542996,
    "ECCENTRICITY": 0.0001484,
    "INCLINATION": 43.0056,
    "RA_OF_ASC_NODE": 334.5936,
    "ARG_OF_PERICENTER": 276.767,
    "MEAN_ANOMALY": 83.3003,
    "EPHEMERIS_TYPE": 0,
    "CLASSIFICATION_TYPE": "U",
    "NORAD_CAT_ID": 54862,
    "ELEMENT_SET_NO": 999,
    "REV_AT_EPOCH": 3067,
    "BSTAR": 1.6784e-6,
    "MEAN_MOTION_DOT": -1.81e-6,
    "MEAN_MOTION_DDOT": 0
},{
    "OBJECT_NAME": "STARLINK-5405",
    "OBJECT_ID": "2022-177AV",
    "EPOCH": "2023-07-16T10:08:41.004384",
    "MEAN_MOTION": 15.02530741,
    "ECCENTRICITY": 0.0001458,
    "INCLINATION": 43.0052,
    "RA_OF_ASC_NODE": 336.1462,
    "ARG_OF_PERICENTER": 269.341,
    "MEAN_ANOMALY": 90.7265,
    "EPHEMERIS_TYPE": 0,
    "CLASSIFICATION_TYPE": "U",
    "NORAD_CAT_ID": 54863,
    "ELEMENT_SET_NO": 999,
    "REV_AT_EPOCH": 3062,
    "BSTAR": -1.0327e-5,
    "MEAN_MOTION_DOT": -3.43e-6,
    "MEAN_MOTION_DDOT": 0
},{
    "OBJECT_NAME": "STARLINK-5359",
    "OBJECT_ID": "2022-177AW",
    "EPOCH": "2023-07-17T09:48:37.220832",
    "MEAN_MOTION": 15.0254082,
    "ECCENTRICITY": 0.0001556,
    "INCLINATION": 43.0051,
    "RA_OF_ASC_NODE": 330.6441,
    "ARG_OF_PERICENTER": 275.7778,
    "MEAN_ANOMALY": 84.2887,
    "EPHEMERIS_TYPE": 0,
    "CLASSIFICATION_TYPE": "U",
    "NORAD_CAT_ID": 54864,
    "ELEMENT_SET_NO": 999,
    "REV_AT_EPOCH": 3064,
    "BSTAR": 0.00016224,
    "MEAN_MOTION_DOT": 1.989e-5,
    "MEAN_MOTION_DDOT": 0
},{
    "OBJECT_NAME": "STARLINK-5411",
    "OBJECT_ID": "2022-177AX",
    "EPOCH": "2023-07-16T18:12:06.847776",
    "MEAN_MOTION": 15.02539994,
    "ECCENTRICITY": 0.0001459,
    "INCLINATION": 43.0044,
    "RA_OF_ASC_NODE": 334.3654,
    "ARG_OF_PERICENTER": 275.2264,
    "MEAN_ANOMALY": 84.8412,
    "EPHEMERIS_TYPE": 0,
    "CLASSIFICATION_TYPE": "U",
    "NORAD_CAT_ID": 54865,
    "ELEMENT_SET_NO": 999,
    "REV_AT_EPOCH": 3055,
    "BSTAR": 0.00013359,
    "MEAN_MOTION_DOT": 1.601e-5,
    "MEAN_MOTION_DDOT": 0
},{
    "OBJECT_NAME": "STARLINK-5398",
    "OBJECT_ID": "2022-177AY",
    "EPOCH": "2023-07-17T09:35:49.181856",
    "MEAN_MOTION": 15.02573368,
    "ECCENTRICITY": 0.0001784,
    "INCLINATION": 43.0049,
    "RA_OF_ASC_NODE": 330.5785,
    "ARG_OF_PERICENTER": 283.5558,
    "MEAN_ANOMALY": 76.5086,
    "EPHEMERIS_TYPE": 0,
    "CLASSIFICATION_TYPE": "U",
    "NORAD_CAT_ID": 54866,
    "ELEMENT_SET_NO": 999,
    "REV_AT_EPOCH": 3077,
    "BSTAR": -0.00044072,
    "MEAN_MOTION_DOT": -6.158e-5,
    "MEAN_MOTION_DDOT": 0
},{
    "OBJECT_NAME": "STARLINK-5396",
    "OBJECT_ID": "2022-177AZ",
    "EPOCH": "2023-07-16T16:18:48.284064",
    "MEAN_MOTION": 15.02535543,
    "ECCENTRICITY": 0.0001474,
    "INCLINATION": 43.0042,
    "RA_OF_ASC_NODE": 334.6349,
    "ARG_OF_PERICENTER": 271.2243,
    "MEAN_ANOMALY": 88.8431,
    "EPHEMERIS_TYPE": 0,
    "CLASSIFICATION_TYPE": "U",
    "NORAD_CAT_ID": 54867,
    "ELEMENT_SET_NO": 999,
    "REV_AT_EPOCH": 3054,
    "BSTAR": 6.4797e-5,
    "MEAN_MOTION_DOT": 6.72e-6,
    "MEAN_MOTION_DDOT": 0
},{
    "OBJECT_NAME": "STARLINK-5379",
    "OBJECT_ID": "2022-177BA",
    "EPOCH": "2023-07-16T15:54:49.814784",
    "MEAN_MOTION": 15.02534913,
    "ECCENTRICITY": 0.0001467,
    "INCLINATION": 43.0049,
    "RA_OF_ASC_NODE": 334.5083,
    "ARG_OF_PERICENTER": 269.5058,
    "MEAN_ANOMALY": 90.5616,
    "EPHEMERIS_TYPE": 0,
    "CLASSIFICATION_TYPE": "U",
    "NORAD_CAT_ID": 54868,
    "ELEMENT_SET_NO": 999,
    "REV_AT_EPOCH": 3053,
    "BSTAR": 2.8219e-5,
    "MEAN_MOTION_DOT": 1.77e-6,
    "MEAN_MOTION_DDOT": 0
},{
    "OBJECT_NAME": "STARLINK-5402",
    "OBJECT_ID": "2022-177BB",
    "EPOCH": "2023-07-16T17:43:20.586144",
    "MEAN_MOTION": 15.02532319,
    "ECCENTRICITY": 0.0001289,
    "INCLINATION": 43.0045,
    "RA_OF_ASC_NODE": 334.2154,
    "ARG_OF_PERICENTER": 271.603,
    "MEAN_ANOMALY": 88.4665,
    "EPHEMERIS_TYPE": 0,
    "CLASSIFICATION_TYPE": "U",
    "NORAD_CAT_ID": 54869,
    "ELEMENT_SET_NO": 999,
    "REV_AT_EPOCH": 3054,
    "BSTAR": 3.1782e-5,
    "MEAN_MOTION_DOT": 2.26e-6,
    "MEAN_MOTION_DDOT": 0
}]
